NORAD_CAT_ID,OBJECT_NAME,OBJECT_TYPE,EPOCH,MEAN_MOTION,ECCENTRICITY,INCLINATION,RA_OF_ASC_NODE,ARG_OF_PERICENTER,MEAN_ANOMALY,BSTAR,MEAN_MOTION_DOT,MEAN_MOTION_DDOT,TLE_LINE0,TLE_LINE1,TLE_LINE2,SEMIMAJOR_AXIS,PERIOD,APOGEE,PERIGEE,DECAYED
53828.0,STARLINK-4760,PAYLOAD,2024-08-19 13:09:35,15.0883237,0.0001172,53.2188,330.0334,80.841,279.2715,-0.00014828,-2.646e-05,0.0,0 STARLINK-4760,1 53828U 22114L   24232.54832723 -.00002646  00000-0 -14828-3 0  9999,2 53828  53.2188 330.0334 0001172  80.8410 279.2715 15.08832370106673,6917.904,95.438,540.579,538.958,0.0
53828.0,STARLINK-4760,PAYLOAD,2024-08-20 11:24:59,15.08861358,0.0001402,53.2176,325.8631,102.8404,257.2745,0.0013351,0.00021036,0.0,0 STARLINK-4760,1 53828U 22114L   24233.47568612  .00021036  00000-0  13351-2 0  9996,2 53828  53.2176 325.8631 0001402 102.8404 257.2745 15.08861358106819,6917.815,95.436,540.65,538.71,0.0
53828.0,STARLINK-4760,PAYLOAD,2024-08-21 12:51:09,15.08823415,0.0001184,53.2178,321.1059,81.4934,278.6192,0.0015009,0.00023669,0.0,0 STARLINK-4760,1 53828U 22114L   24234.53552491  .00023669  00000-0  15009-2 0  9998,2 53828  53.2178 321.1059 0001184  81.4934 278.6192 15.08823415106973,6917.931,95.439,540.615,538.977,0.0
